mrgid,geoname,mrgid_ter1,pol_type,mrgid_sov1,territory1,iso_ter1,sovereign1,mrgid_ter2,mrgid_sov2,territory2,iso_ter2,sovereign2,mrgid_ter3,mrgid_sov3,territory3,iso_ter3,sovereign3,x_1,y_1,mrgid_eez,area_km2,iso_sov1,iso_sov2,iso_sov3,un_sov1,un_sov2,un_sov3,un_ter1,un_ter2,un_ter3
8444,American Samoa Exclusive Economic Zone,8670,200NM,2204,American Samoa,ASM,United States,0,0,NA,NA,NA,0,0,NA,NA,NA,-169.06347,-13.85484,8444,405830,USA,NA,NA,840,NA,NA,16,NA,NA
8379,Ascension Exclusive Economic Zone,8620,200NM,2208,Ascension,SHN,United Kingdom,0,0,NA,NA,NA,0,0,NA,NA,NA,-14.36337,-7.94747,8379,446005,GBR,NA,NA,826,NA,NA,654,NA,NA
8446,Cook Islands Exclusive Economic Zone,8672,200NM,2227,Cook Islands,COK,New Zealand,0,0,NA,NA,NA,0,0,NA,NA,NA,-161.30341,-15.01891,8446,1969553,NZL,NA,NA,554,NA,NA,184,NA,NA
8389,Overlapping claim Falkland / Malvinas Islands: UK / Argentina,8623,Overlapping claim,2208,Falkland / Malvinas Islands,FLK,United Kingdom,8623,2149,Falkland / Malvinas Islands,FLK,Argentina,0,0,NA,NA,NA,-58.32237,-51.66703,8389,550566,GBR,ARG,NA,826,32,NA,238,238,NA
8440,French Polynesian Exclusive Economic Zone,8656,200NM,17,French Polynesia,PYF,France,0,0,NA,NA,NA,0,0,NA,NA,NA,-144.00327,-18.73634,8440,4766689,FRA,NA,NA,250,NA,NA,258,NA,NA
8439,Pitcairn Islands Exclusive Economic Zone,2259,200NM,2208,Pitcairn,PCN,United Kingdom,0,0,NA,NA,NA,0,0,NA,NA,NA,-127.42131,-24.60623,8439,842291,GBR,NA,NA,826,NA,NA,612,NA,NA
8380,St. Helena Exclusive Economic Zone,8619,200NM,2208,Saint Helena,SHN,United Kingdom,0,0,NA,NA,NA,0,0,NA,NA,NA,-5.70869,-15.97278,8380,449215,GBR,NA,NA,826,NA,NA,654,NA,NA
8445,Samoan Exclusive Economic Zone,8671,200NM,8671,Samoa,WSM,Samoa,0,0,NA,NA,NA,0,0,NA,NA,NA,-172.75372,-13.29687,8445,130480,WSM,NA,NA,882,NA,NA,882,NA,NA
8448,Tongan Exclusive Economic Zone,8674,200NM,8674,Tonga,TON,Tonga,0,0,NA,NA,NA,0,0,NA,NA,NA,-174.76586,-20.22175,8448,666052,TON,NA,NA,776,NA,NA,776,NA,NA
8382,Tristan Da Cunha Exclusive Economic Zone,8621,200NM,2208,Tristan da Cunha,SHN,United Kingdom,0,0,NA,NA,NA,0,0,NA,NA,NA,-11.20987,-38.7619,8382,758168,GBR,NA,NA,826,NA,NA,654,NA,NA
8465,Chilean Exclusive Economic Zone,2165,200NM,2165,Chile,CHL,Chile,0,0,NA,NA,NA,0,0,NA,NA,NA,-75.62881,-40.98629,8465,2488052,CHL,NA,NA,152,NA,NA,152,NA,NA
8447,Niue Exclusive Economic Zone,8673,200NM,2227,Niue,NIU,New Zealand,0,0,NA,NA,NA,0,0,NA,NA,NA,-169.33138,-19.52315,8447,318140,NZL,NA,NA,554,NA,NA,570,NA,NA
48961,Joint regime area Argentina / Uruguay,2216,Joint regime,2216,Uruguay,URY,Uruguay,2149,2149,Argentina,ARG,Argentina,0,0,NA,NA,NA,-55.16096,-36.25493,48961,41414,URY,ARG,NA,858,32,NA,858,32,NA
48962,Joint regime area Peru / Ecuador,2257,Joint regime,2257,Peru,PER,Peru,2166,2166,Ecuador,ECU,Ecuador,0,0,NA,NA,NA,-82.53248,-3.38858,48962,16097,PER,ECU,NA,604,218,NA,604,218,NA
8467,Uruguayan Exclusive Economic Zone,2216,200NM,2216,Uruguay,URY,Uruguay,0,0,NA,NA,NA,0,0,NA,NA,NA,-53.32143,-35.78927,8467,143092,URY,NA,NA,858,NA,NA,858,NA,NA
8449,Tokelau Exclusive Economic Zone,8675,200NM,2227,Tokelau,TKL,New Zealand,0,0,NA,NA,NA,0,0,NA,NA,NA,-172.08495,-8.63257,8449,320548,NZL,NA,NA,554,NA,NA,772,NA,NA
8432,Peruvian Exclusive Economic Zone,2257,200NM,2257,Peru,PER,Peru,0,0,NA,NA,NA,0,0,NA,NA,NA,-78.88478,-11.8994,8432,854698,PER,NA,NA,604,NA,NA,604,NA,NA
22756,Chilean Exclusive Economic Zone (San Felix and San Ambrosio islands),25135,200NM,2165,Islas San Félix and San Ambrosio,CHL,Chile,0,0,NA,NA,NA,0,0,NA,NA,NA,-79.99086,-26.33091,22756,450960,CHL,NA,NA,152,NA,NA,152,NA,NA
21787,Chilean Exclusive Economic Zone (Easter Island),15120,200NM,2165,Easter Island,NA,Chile,0,0,NA,NA,NA,0,0,NA,NA,NA,-107.43869,-26.824,21787,729763,CHL,NA,NA,152,NA,NA,NA,NA,NA
8381,Brazilian Exclusive Economic Zone (Trindade),8622,200NM,2143,Trindade,NA,Brazil,0,0,NA,NA,NA,0,0,NA,NA,NA,-29.09644,-20.50277,8381,472481,BRA,NA,NA,76,NA,NA,NA,NA,NA
8450,Kiribati Exclusive Economic Zone (Phoenix Islands),8658,200NM,2116,Phoenix Group,KIR,Kiribati,0,0,NA,NA,NA,0,0,NA,NA,NA,-172.45397,-3.73181,8450,745782,KIR,NA,NA,296,NA,NA,296,NA,NA
8466,Argentinean Exclusive Economic Zone,2149,200NM,2149,Argentina,ARG,Argentina,0,0,NA,NA,NA,0,0,NA,NA,NA,-62.1595,-47.08999,8466,1072053,ARG,NA,NA,32,NA,NA,32,NA,NA
8386,Amsterdam Island & St. Paul Island Exclusive Economic Zone,48979,200NM,17,Amsterdam and Saint Paul Islands,ATF,France,0,0,NA,NA,NA,0,0,NA,NA,NA,77.54181,-38.29431,8386,512188,FRA,NA,NA,250,NA,NA,260,NA,NA
8309,Christmas Island Exclusive Economic Zone,8590,200NM,2147,Christmas Island,CXR,Australia,0,0,NA,NA,NA,0,0,NA,NA,NA,105.36523,-11.24358,8309,327994,AUS,NA,NA,36,NA,NA,162,NA,NA
8308,Cocos Islands Exclusive Economic Zone,8589,200NM,2147,Cocos Islands,CCK,Australia,0,0,NA,NA,NA,0,0,NA,NA,NA,96.85434,-12.03146,8308,467440,AUS,NA,NA,36,NA,NA,166,NA,NA
8334,Comoran Exclusive Economic Zone,2163,200NM,2163,Comores,COM,Comores,0,0,NA,NA,NA,0,0,NA,NA,NA,43.45423,-11.42314,8334,164476,COM,NA,NA,174,0,0,174,0,0
8385,Crozet Islands Exclusive Economic Zone,8627,200NM,17,Crozet Islands,ATF,France,0,0,NA,NA,NA,0,0,NA,NA,NA,51.21218,-46.30696,8385,575375,FRA,NA,NA,250,NA,NA,260,NA,NA
48944,Overlapping claim Mayotte: France / Comoros,8606,Overlapping claim,17,Mayotte,MYT,France,8606,2163,Mayotte,MYT,Comores,0,0,NA,NA,NA,45.30656,-13.21698,48944,66738,FRA,COM,NA,250,174,0,175,175,0
48946,Overlapping claim Ile Tromelin: Reunion / Madagascar / Mauritus,8613,Overlapping claim,17,Ile Tromelin,NA,France,8613,7963,Ile Tromelin,NA,Madagascar,8613,8614,Ile Tromelin,NA,Republic of Mauritius,54.67305,-15.71127,48946,274555,FRA,MDG,MUS,250,450,480,NA,NA,NA
8388,Heard and McDonald Islands Exclusive Economic Zone,8631,200NM,2147,Heard and McDonald Islands,HMD,Australia,0,0,NA,NA,NA,0,0,NA,NA,NA,73.73051,-53.49863,8388,417321,AUS,NA,NA,36,NA,NA,334,NA,NA
8387,Kerguelen Exclusive Economic Zone,8630,200NM,17,Kerguélen,ATF,France,0,0,NA,NA,NA,0,0,NA,NA,NA,68.9746,-48.87795,8387,550817,FRA,NA,NA,250,NA,NA,260,NA,NA
8348,Madagascan Exclusive Economic Zone,7963,200NM,7963,Madagascar,MDG,Madagascar,0,0,NA,NA,NA,0,0,NA,NA,NA,47.25395,-20.91335,8348,1196285,MDG,NA,NA,450,NA,NA,450,NA,NA
8396,South African Exclusive Economic Zone,2176,200NM,2176,South Africa,ZAF,South Africa,0,0,NA,NA,NA,0,0,NA,NA,NA,24.44331,-33.50802,8396,1072679,ZAF,NA,NA,710,NA,NA,710,NA,NA
8312,New Caledonian Exclusive Economic Zone,2261,200NM,17,New Caledonia,NCL,France,0,0,NA,NA,NA,0,0,NA,NA,NA,163.20377,-21.01871,8312,1175971,FRA,NA,NA,250,NA,NA,540,NA,NA
8310,Norfolk Island Exclusive Economic Zone,8591,200NM,2147,Norfolk Island,NFK,Australia,0,0,NA,NA,NA,0,0,NA,NA,NA,167.92898,-29.093139999999998,8310,430600,AUS,NA,NA,36,NA,NA,574,NA,NA
8343,Mauritian Exclusive Economic Zone,8614,200NM,8614,Republic of Mauritius,MUS,Republic of Mauritius,0,0,NA,NA,NA,0,0,NA,NA,NA,60.1172,-16.81021,8343,1278182,MUS,NA,NA,480,NA,NA,480,NA,NA
8338,Réunion Exclusive Economic Zone,8609,200NM,17,Réunion,REU,France,0,0,NA,NA,NA,0,0,NA,NA,NA,54.71328,-21.78197,8338,315151,FRA,NA,NA,250,NA,NA,638,NA,NA
8313,Vanuatu Exclusive Economic Zone,2202,200NM,2202,Vanuatu,VUT,Vanuatu,0,0,NA,NA,NA,0,0,NA,NA,NA,168.56883,-16.59488,8313,623424,VUT,NA,NA,548,NA,NA,548,NA,NA
8395,Namibian Exclusive Economic Zone,2218,200NM,2218,Namibia,NAM,Namibia,0,0,NA,NA,NA,0,0,NA,NA,NA,12.28547,-23.64969,8395,562212,NAM,NA,NA,516,NA,NA,516,NA,NA
21791,Oecussi Ambeno Exclusive Economic Zone,26234,200NM,8757,Oecusse,NA,East Timor,0,0,NA,NA,NA,0,0,NA,NA,NA,124.27075,-9.04989,21791,1826,TLS,NA,NA,626,NA,NA,NA,NA,NA
8394,Congolese Exclusive Economic Zone,8633,200NM,8633,Republic of the Congo,COG,Republic of the Congo,0,0,NA,NA,NA,0,0,NA,NA,NA,10.59577,-5.33648,8394,33807,COG,NA,NA,178,NA,NA,178,NA,NA
8478,Angolan Exclusive Economic Zone,2150,200NM,2150,Angola,AGO,Angola,0,0,NA,NA,NA,0,0,NA,NA,NA,11.03537,-11.7011,8478,495866,AGO,NA,NA,24,NA,NA,24,NA,NA
8347,Mozambican Exclusive Economic Zone,2220,200NM,2220,Mozambique,MOZ,Mozambique,0,0,NA,NA,NA,0,0,NA,NA,NA,37.9574,-20.37062,8347,566292,MOZ,NA,NA,508,NA,NA,508,NA,NA
8349,Kenyan Exclusive Economic Zone,2118,200NM,2118,Kenya,KEN,Kenya,0,0,NA,NA,NA,0,0,NA,NA,NA,41.79278,-3.53678,8349,113833,KEN,NA,NA,404,NA,NA,404,NA,NA
21798,Protected Zone established under the Torres Strait Treaty,2237,Joint regime,2237,Papua New Guinea,PNG,Papua New Guinea,2147,2147,Australia,AUS,Australia,0,0,NA,NA,NA,142.41029,-9.50249,21798,3717,PNG,AUS,NA,598,36,NA,598,36,NA
8384,South African Exclusive Economic Zone (Prince Edward Islands),22598,200NM,2176,Prince Edward Islands,NA,South Africa,0,0,NA,NA,NA,0,0,NA,NA,NA,37.80854,-46.83292,8384,474897,ZAF,NA,NA,710,NA,NA,NA,NA,NA
8479,Tanzanian Exclusive Economic Zone,2205,200NM,2205,Tanzania,TZA,Tanzania,0,0,NA,NA,NA,0,0,NA,NA,NA,41.1686,-7.21087,8479,241567,TZA,NA,NA,834,NA,NA,834,NA,NA
8314,Solomon Islands Exclusive Economic Zone,8593,200NM,8593,Solomon Islands,SLB,Solomon Islands,0,0,NA,NA,NA,0,0,NA,NA,NA,163.6885,-10.05068,8314,1605325,SLB,NA,NA,90,NA,NA,90,NA,NA
8337,Seychellois Exclusive Economic Zone,2192,200NM,2192,Seychelles,SYC,Seychelles,0,0,NA,NA,NA,0,0,NA,NA,NA,52.46886,-6.54776,8337,1341504,SYC,NA,NA,690,NA,NA,690,NA,NA
48945,Overlapping claim Glorioso Islands: France / Madagascar,8607,Overlapping claim,7963,Glorioso Islands,NA,Madagascar,8607,17,Glorioso Islands,ATF,France,0,0,NA,NA,NA,47.0969,-11.6181,48945,43506,MDG,FRA,NA,450,250,NA,NA,260,NA
8341,Ile Europa Exclusive Economic Zone,8612,200NM,17,Europa Island,ATF,France,0,0,NA,NA,NA,0,0,NA,NA,NA,40.10928,-23.53682,8341,127936,FRA,NA,NA,250,NA,NA,260,NA,NA
48948,Overlapping claim Matthew and Hunter Islands: New Caledonia / Vanuatu,49593,Overlapping claim,17,Matthew and Hunter Islands,NA,France,49593,2202,Matthew and Hunter Islands,NA,Vanuatu,0,0,NA,NA,NA,172.03655,-23.27911,48948,187184,FRA,VUT,NA,250,548,NA,NA,NA,NA
8477,Democratic Republic of the Congo Exclusive Economic Zone,2198,200NM,2198,Democratic Republic of the Congo,COD,Democratic Republic of the Congo,0,0,NA,NA,NA,0,0,NA,NA,NA,10.73256,-6.40153,8477,13373,COD,NA,NA,180,NA,NA,180,NA,NA
8323,Australian Exclusive Economic Zone,2147,200NM,2147,Australia,AUS,Australia,0,0,NA,NA,NA,0,0,NA,NA,NA,138.08226,-27.36726,8323,6871622,AUS,NA,NA,36,NA,NA,36,NA,NA
8311,Australian Exclusive Economic Zone (Macquarie Island),8592,200NM,2147,Macquarie Island,NA,Australia,0,0,NA,NA,NA,0,0,NA,NA,NA,158.64987,-54.87818,8311,475647,AUS,NA,NA,36,NA,NA,NA,NA,NA
8339,Juan de Nova Exclusive Economic Zone,8610,200NM,17,Juan de Nova Island,ATF,France,0,0,NA,NA,NA,0,0,NA,NA,NA,42.09428,-17.30663,8339,62775,FRA,NA,NA,250,NA,NA,260,NA,NA
8340,Bassas da India Exclusive Economic Zone,31136,200NM,17,Bassas da India,ATF,France,0,0,NA,NA,NA,0,0,NA,NA,NA,39.42518,-20.86054,8340,120706,FRA,NA,NA,250,NA,NA,260,NA,NA
33176,Overlapping claim: Kenya / Somalia,2118,Overlapping claim,2118,Kenya,KEN,Kenya,2187,2187,Federal Republic of Somalia,SOM,Federal Republic of Somalia,0,0,NA,NA,NA,43.9049,-2.28224,33176,50229,KEN,SOM,NA,404,706,NA,404,706,NA
8758,East Timorian Exclusive Economic Zone,8757,200NM,8757,East Timor,TLS,East Timor,0,0,NA,NA,NA,0,0,NA,NA,NA,126.8541,-9.78156,8758,75647,TLS,NA,NA,626,NA,NA,626,NA,NA
8412,Anguilla Exclusive Economic Zone,8643,200NM,2208,Anguilla,AIA,United Kingdom,0,0,NA,NA,NA,0,0,NA,NA,NA,-62.54329,20.01803,8412,90164,GBR,NA,NA,826,NA,NA,660,NA,NA
8414,Antigua and Barbuda Exclusive Economic Zone,8645,200NM,8645,Antigua and Barbuda,ATG,Antigua and Barbuda,0,0,NA,NA,NA,0,0,NA,NA,NA,-60.57064,18.73279,8414,111568,ATG,NA,NA,28,NA,NA,28,NA,NA
26519,Aruban Exclusive Economic Zone,8652,200NM,15,Aruba,ABW,Netherlands,0,0,NA,NA,NA,0,0,NA,NA,NA,-69.67341,13.74138,26519,30015,NLD,NA,NA,528,NA,NA,533,NA,NA
8361,Portuguese Exclusive Economic Zone (Azores),2454,200NM,2243,Azores,NA,Portugal,0,0,NA,NA,NA,0,0,NA,NA,NA,-27.97601,38.47538,8361,960421,PRT,NA,NA,620,NA,NA,NA,NA,NA
8404,Bahamas Exclusive Economic Zone,2144,200NM,2144,Bahamas,BHS,Bahamas,0,0,NA,NA,NA,0,0,NA,NA,NA,-75.57785,25.11716,8404,619785,BHS,NA,NA,44,NA,NA,44,NA,NA
8418,Barbados Exclusive Economic Zone,8649,200NM,8649,Barbados,BRB,Barbados,0,0,NA,NA,NA,0,0,NA,NA,NA,-57.99356,13.32288,8418,185007,BRB,NA,NA,52,NA,NA,52,NA,NA
8429,Mexican Exclusive Economic Zone,2224,200NM,2224,Mexico,MEX,Mexico,0,0,NA,NA,NA,0,0,NA,NA,NA,-105.33346,21.35018,8429,3187013,MEX,NA,NA,484,NA,NA,484,NA,NA
26520,Bonaire Exclusive Economic Zone,15074,200NM,15,Bonaire,BES,Netherlands,0,0,NA,NA,NA,0,0,NA,NA,NA,-68.36978,12.7112,26520,13005,NLD,NA,NA,528,NA,NA,535,NA,NA
8411,British Virgin Islands Exclusive Economic Zone,8653,200NM,2208,British Virgin Islands,VGB,United Kingdom,0,0,NA,NA,NA,0,0,NA,NA,NA,-64.50497,20.38988,8411,81555,GBR,NA,NA,826,NA,NA,92,NA,NA
8362,Cape Verdean Exclusive Economic Zone,2168,200NM,2168,Cape Verde,CPV,Cape Verde,0,0,NA,NA,NA,0,0,NA,NA,NA,-24.17164,16.0919,8362,801936,CPV,NA,NA,132,NA,NA,132,NA,NA
8364,Spanish Exclusive Economic Zone (Canary Islands),3743,200NM,2185,Canary Islands,NA,Spain,0,0,NA,NA,NA,0,0,NA,NA,NA,-17.61396,28.36715,8364,445910,ESP,NA,NA,724,NA,NA,NA,NA,NA
8407,Cayman Islands Exclusive Economic Zone,8638,200NM,2208,Cayman Islands,CYM,United Kingdom,0,0,NA,NA,NA,0,0,NA,NA,NA,-81.13914,19.15345,8407,118291,GBR,NA,NA,826,NA,NA,136,NA,NA
8401,Clipperton Exclusive Economic Zone,8635,200NM,17,Clipperton Island,NA,France,0,0,NA,NA,NA,0,0,NA,NA,NA,-109.21728,10.30869,8401,435657,FRA,NA,NA,250,NA,NA,NA,NA,NA
8423,Panamanian Exclusive Economic Zone,2249,200NM,2249,Panama,PAN,Panama,0,0,NA,NA,NA,0,0,NA,NA,NA,-80.34583,8.2888,8423,331318,PAN,NA,NA,591,NA,NA,591,NA,NA
8424,Costa Rican Exclusive Economic Zone,2162,200NM,2162,Costa Rica,CRI,Costa Rica,0,0,NA,NA,NA,0,0,NA,NA,NA,-86.50737,6.73691,8424,581726,CRI,NA,NA,188,NA,NA,188,NA,NA
26517,Curaçaoan Exclusive Economic Zone,19143,200NM,15,Curaçao,CUW,Netherlands,0,0,NA,NA,NA,0,0,NA,NA,NA,-68.97176,13.16246,26517,25401,NLD,NA,NA,528,NA,NA,531,NA,NA
8417,Dominican Exclusive Economic Zone,8648,200NM,8648,Dominica,DMA,Dominica,0,0,NA,NA,NA,0,0,NA,NA,NA,-60.72114,15.49739,8417,28552,DMA,NA,NA,212,NA,NA,212,NA,NA
8409,Dominican Republic Exclusive Economic Zone,8640,200NM,8640,Dominican Republic,DOM,Dominican Republic,0,0,NA,NA,NA,0,0,NA,NA,NA,-69.67224,19.13826,8409,350694,DOM,NA,NA,214,NA,NA,214,NA,NA
8430,Guatemalan Exclusive Economic Zone,2097,200NM,2097,Guatemala,GTM,Guatemala,0,0,NA,NA,NA,0,0,NA,NA,NA,-92.0908,12.55243,8430,110695,GTM,NA,NA,320,NA,NA,320,NA,NA
8435,Faeroe Exclusive Economic Zone,3297,200NM,2157,Faeroe,FRO,Denmark,0,0,NA,NA,NA,0,0,NA,NA,NA,-6.9969,62.5946,8435,265632,DNK,NA,NA,208,NA,NA,234,NA,NA
8370,Gambian Exclusive Economic Zone,2113,200NM,2113,Gambia,GMB,Gambia,0,0,NA,NA,NA,0,0,NA,NA,NA,-18.38751,13.32867,8370,23097,GMB,NA,NA,270,NA,NA,270,NA,NA
8365,Overlapping claim Gibraltarian Exclusive Economic Zone,3344,Overlapping claim,2208,Gibraltar,GIB,United Kingdom,2185,2185,Spain,ESP,Spain,0,0,NA,NA,NA,-5.21961,36.08832,8365,388,GIB,ESP,NA,826,724,NA,292,724,NA
8419,Grenadian Exclusive Economic Zone,8650,200NM,8650,Grenada,GRD,Grenada,0,0,NA,NA,NA,0,0,NA,NA,NA,-62.05881,12.24388,8419,25571,GRD,NA,NA,308,NA,NA,308,NA,NA
33177,Guadeloupean Exclusive Economic Zone,8654,200NM,17,Guadeloupe,GLP,France,0,0,NA,NA,NA,0,0,NA,NA,NA,-59.85044,16.7988,33177,90705,FRA,NA,NA,250,NA,NA,312,NA,NA
8390,Sierra Leonian Exclusive Economic Zone,2191,200NM,2191,Sierra Leone,SLE,Sierra Leone,0,0,NA,NA,NA,0,0,NA,NA,NA,-14.14468,6.63541,8390,160584,SLE,NA,NA,694,NA,NA,694,NA,NA
5680,Icelandic Exclusive Economic Zone,2129,200NM,2129,Iceland,ISL,Iceland,0,0,NA,NA,NA,0,0,NA,NA,NA,-18.44845,64.69826,5680,763239,ISL,NA,NA,352,NA,NA,352,NA,NA
8459,Jamaican Exclusive Economic Zone,8682,200NM,8682,Jamaica,JAM,Jamaica,0,0,NA,NA,NA,0,0,NA,NA,NA,-77.29089,16.66861,8459,256909,JAM,NA,NA,388,NA,NA,388,NA,NA
8363,Portuguese Exclusive Economic Zone (Madeira),4956,200NM,2243,Madeira,NA,Portugal,0,0,NA,NA,NA,0,0,NA,NA,NA,-16.81091,33.17302,8363,452796,PRT,NA,NA,620,NA,NA,NA,NA,NA
8369,Mauritanian Exclusive Economic Zone,2236,200NM,2236,Mauritania,MRT,Mauritania,0,0,NA,NA,NA,0,0,NA,NA,NA,-17.91755,18.24852,8369,173180,MRT,NA,NA,478,NA,NA,478,NA,NA
8415,Montserrat Exclusive Economic Zone,8646,200NM,2208,Montserrat,MSR,United Kingdom,0,0,NA,NA,NA,0,0,NA,NA,NA,-62.48384,16.41292,8415,7188,GBR,NA,NA,826,NA,NA,500,NA,NA
48951,Overlapping claim Navassa Island: USA / Haiti / Jamaica,20312,Overlapping claim,8639,Navassa Island,NA,Haiti,20312,2204,Navassa Island,NA,United States,20312,8682,Navassa Island,NA,Jamaica,-75.18373,18.33814,48951,13890,HTI,USA,JAM,332,840,388,NA,NA,NA
8443,Palmyra Atoll Exclusive Economic Zone,8669,200NM,2204,Palmyra Atoll,UMI,United States,0,0,NA,NA,NA,0,0,NA,NA,NA,-162.89881,6.68794,8443,353670,USA,NA,NA,840,NA,NA,581,NA,NA
33179,Puerto Rican Exclusive Economic Zone,8641,200NM,2204,Puerto Rico,PRI,United States,0,0,NA,NA,NA,0,0,NA,NA,NA,-66.78687,17.79821,33179,154661,USA,NA,NA,840,NA,NA,630,NA,NA
26518,Saba Exclusive Economic Zone,19095,200NM,15,Saba,BES,Netherlands,0,0,NA,NA,NA,0,0,NA,NA,NA,-63.60185,17.37739,26518,9487,NLD,NA,NA,528,NA,NA,535,NA,NA
48952,Saint-Barthélemy Exclusive Economic Zone,19099,200NM,17,Saint-Barthélemy,BLM,France,0,0,NA,NA,NA,0,0,NA,NA,NA,-62.6274,17.9327,48952,4179,FRA,NA,NA,250,NA,NA,652,NA,NA
26526,Sint-Eustatius Exclusive Economic Zone,26525,200NM,15,Sint-Eustatius,BES,Netherlands,0,0,NA,NA,NA,0,0,NA,NA,NA,-63.12987,17.3389,26526,2176,NLD,NA,NA,528,NA,NA,535,NA,NA
8413,Saint Kitts and Nevis Exclusive Economic Zone,8644,200NM,8644,Saint Kitts and Nevis,KNA,Saint Kitts and Nevis,0,0,NA,NA,NA,0,0,NA,NA,NA,-62.90578,16.99022,8413,9502,KNA,NA,NA,659,NA,NA,659,NA,NA
8416,Saint Lucia Exclusive Economic Zone,8647,200NM,8647,Saint Lucia,LCA,Saint Lucia,0,0,NA,NA,NA,0,0,NA,NA,NA,-61.10359,13.8777,8416,15413,LCA,NA,NA,662,NA,NA,662,NA,NA
8495,Saint-Martin Exclusive Economic Zone,8688,200NM,17,Collectivity of Saint Martin,MAF,France,0,0,NA,NA,NA,0,0,NA,NA,NA,-63.20282,18.03469,8495,1100,FRA,NA,NA,250,NA,NA,663,NA,NA
8494,Saint-Pierre and Miquelon Exclusive Economic Zone,8686,200NM,17,Saint-Pierre and Miquelon,SPM,France,0,0,NA,NA,NA,0,0,NA,NA,NA,-56.38701,45.85719,8494,12414,FRA,NA,NA,250,NA,NA,666,NA,NA
8421,Saint Vincent and the Grenadines Exclusive Economic Zone,8651,200NM,8651,Saint Vincent and the Grenadines,VCT,Saint Vincent and the Grenadines,0,0,NA,NA,NA,0,0,NA,NA,NA,-61.69442,13.15805,8421,36244,VCT,NA,NA,670,NA,NA,670,NA,NA
21803,Sint-Maarten Exclusive Economic Zone,21802,200NM,15,Sint-Maarten,SXM,Netherlands,0,0,NA,NA,NA,0,0,NA,NA,NA,-63.12285,17.93813,21803,466,NLD,NA,NA,528,NA,NA,534,NA,NA
8420,Trinidad and Tobago Exclusive Economic Zone,2186,200NM,2186,Trinidad and Tobago,TTO,Trinidad and Tobago,0,0,NA,NA,NA,0,0,NA,NA,NA,-59.98478,10.95788,8420,76562,TTO,NA,NA,780,NA,NA,780,NA,NA
8405,Turks and Caicos Exclusive Economic Zone,2211,200NM,2208,Turks and Caicos Islands,TCA,United Kingdom,0,0,NA,NA,NA,0,0,NA,NA,NA,-70.85361,22.80987,8405,91025,GBR,NA,NA,826,NA,NA,796,NA,NA
33180,Virgin Islander Exclusive Economic Zone,8642,200NM,2204,United States Virgin Islands,VIR,United States,0,0,NA,NA,NA,0,0,NA,NA,NA,-64.92435,17.25496,33180,38275,USA,NA,NA,840,NA,NA,850,NA,NA
5688,Portuguese Exclusive Economic Zone,2243,200NM,2243,Portugal,PRT,Portugal,0,0,NA,NA,NA,0,0,NA,NA,NA,-10.92284,38.31921,5688,315501,PRT,NA,NA,620,NA,NA,620,NA,NA
8428,El Salvador Exclusive Economic Zone,2135,200NM,2135,El Salvador,SLV,El Salvador,0,0,NA,NA,NA,0,0,NA,NA,NA,-89.74411,11.84859,8428,95099,SLV,NA,NA,222,NA,NA,222,NA,NA
8457,Belizean Exclusive Economic Zone,8681,200NM,8681,Belize,BLZ,Belize,0,0,NA,NA,NA,0,0,NA,NA,NA,-87.5932,17.18774,8457,34312,BLZ,NA,NA,84,NA,NA,84,NA,NA
8406,Cuban Exclusive Economic Zone,8637,200NM,8637,Cuba,CUB,Cuba,0,0,NA,NA,NA,0,0,NA,NA,NA,-81.5305,21.60004,8406,352259,CUB,NA,NA,192,NA,NA,192,NA,NA
8408,Haitian Exclusive Economic Zone,8639,200NM,8639,Haiti,HTI,Haiti,0,0,NA,NA,NA,0,0,NA,NA,NA,-73.54856,17.91219,8408,103485,HTI,NA,NA,332,NA,NA,332,NA,NA
33178,Martinican Exclusive Economic Zone,8655,200NM,17,Martinique,MTQ,France,0,0,NA,NA,NA,0,0,NA,NA,NA,-60.20055,14.97512,33178,47787,FRA,NA,NA,250,NA,NA,474,NA,NA
48964,Joint regime area Senegal / Guinea Bissau,2225,Joint regime,2225,Senegal,SEN,Senegal,8685,8685,Guinea-Bissau,GNB,Guinea-Bissau,0,0,NA,NA,NA,-18.77443,11.261,48964,63460,SEN,GNB,NA,686,624,NA,686,624,NA
48965,Overlapping claim: Venezuela / Aruba / Dominican Republic,2201,Overlapping claim,2201,Venezuela,VEN,Venezuela,8652,15,Aruba,ABW,Netherlands,8640,8640,Dominican Republic,DOM,Dominican Republic,-69.65326,15.30381,48965,1113,VEN,NLD,DOM,862,528,214,862,533,214
48966,Joint regime area Spain / France,17,Joint regime,17,France,FRA,France,2185,2185,Spain,ESP,Spain,0,0,NA,NA,NA,-5.33333,45.25417,48966,2859,FRA,ESP,NA,250,724,NA,250,724,NA
48967,Joint regime area United Kingdom / Denmark (Faeroe Islands),2208,Joint regime,2208,United Kingdom,GBR,United Kingdom,3297,2157,Faeroe,FRO,Denmark,0,0,NA,NA,NA,-7.51858,60.03609,48967,8011,GBR,DNK,NA,826,208,NA,826,234,NA
48943,Overlapping claim: Canada / USA,2169,Overlapping claim,2169,Canada,CAN,Canada,2204,2204,United States,USA,United States,0,0,NA,NA,NA,-139.852,72.03395,48943,24772,CAN,USA,NA,124,840,NA,124,840,NA
48968,Joint regime area Costa Rica / Ecuador (Galapagos),2162,Joint regime,2162,Costa Rica,CRI,Costa Rica,5660,2166,Galapagos,NA,Ecuador,0,0,NA,NA,NA,-88.84132,3.22641,48968,17337,CRI,ECU,NA,188,218,NA,188,NA,NA
8425,Nicaraguan Exclusive Economic Zone,2255,200NM,2255,Nicaragua,NIC,Nicaragua,0,0,NA,NA,NA,0,0,NA,NA,NA,-83.49562,12.81975,8425,213813,NIC,NA,NA,558,NA,NA,558,NA,NA
8460,Guyanese Exclusive Economic Zone,2124,200NM,2124,Guyana,GUY,Guyana,0,0,NA,NA,NA,0,0,NA,NA,NA,-57.64094,8.61338,8460,135060,GUY,NA,NA,328,NA,NA,328,NA,NA
48969,Joint regime area Guyana / Barbados,8649,Joint regime,8649,Barbados,BRB,Barbados,2124,2124,Guyana,GUY,Guyana,0,0,NA,NA,NA,-57.13214,10.68079,48969,67,BRB,GUY,NA,52,328,NA,52,328,NA
48970,Joint regime area Colombia / Dominican Republic,8640,Joint regime,8640,Dominican Republic,DOM,Dominican Republic,2175,2175,Colombia,COL,Colombia,0,0,NA,NA,NA,-72.50386,15.01851,48970,13111,DOM,COL,NA,214,170,NA,214,170,NA
48971,Overlapping claim: Venezuela / Colombia / Dominican Republic,2175,Overlapping claim,2175,Colombia,COL,Colombia,8640,8640,Dominican Republic,DOM,Dominican Republic,2201,2201,Venezuela,VEN,Venezuela,-71.09015,15.05334,48971,869,COL,DOM,VEN,170,214,862,170,214,862
5681,Irish Exclusive Economic Zone,2114,200NM,2114,Ireland,IRL,Ireland,0,0,NA,NA,NA,0,0,NA,NA,NA,-11.74631,52.65269,5681,427039,IRL,NA,NA,372,NA,NA,372,NA,NA
21788,Guernsey Exclusive Economic Zone,4377,200NM,2208,Guernsey,GGY,United Kingdom,0,0,NA,NA,NA,0,0,NA,NA,NA,-2.65845,49.63968,21788,6531,GBR,NA,NA,826,NA,NA,831,NA,NA
21789,Jersey Exclusive Economic Zone,4378,200NM,2208,Jersey,JEY,United Kingdom,0,0,NA,NA,NA,0,0,NA,NA,NA,-2.19116,49.1215,21789,2277,GBR,NA,NA,826,NA,NA,832,NA,NA
8371,Senegalese Exclusive Economic Zone,2225,200NM,2225,Senegal,SEN,Senegal,0,0,NA,NA,NA,0,0,NA,NA,NA,-18.50357,13.69463,8371,158358,SEN,NA,NA,686,NA,NA,686,NA,NA
8471,Guinea Bissau Exclusive Economic Zone,8685,200NM,8685,Guinea-Bissau,GNB,Guinea-Bissau,0,0,NA,NA,NA,0,0,NA,NA,NA,-17.5672,10.58066,8471,106870,GNB,NA,NA,624,NA,NA,624,NA,NA
8472,Guinean Exclusive Economic Zone,2122,200NM,2122,Guinea,GIN,Guinea,0,0,NA,NA,NA,0,0,NA,NA,NA,-15.62051,9.18114,8472,102163,GIN,NA,NA,324,NA,NA,324,NA,NA
8473,Ivory Coast Exclusive Economic Zone,2161,200NM,2161,Ivory Coast,CIV,Ivory Coast,0,0,NA,NA,NA,0,0,NA,NA,NA,-5.45221,3.30891,8473,171760,CIV,NA,NA,384,NA,NA,384,NA,NA
33185,Overlapping claim: Trinidad and Tobago / Venezuela / Guyana,2124,Overlapping claim,2124,Guyana,GUY,Guyana,2186,2186,Trinidad and Tobago,TTO,Trinidad and Tobago,2201,2201,Venezuela,VEN,Venezuela,-57.88712,10.56539,33185,3612,GUY,TTO,VEN,328,780,862,328,780,862
8391,Liberian Exclusive Economic Zone,2105,200NM,2105,Liberia,LBR,Liberia,0,0,NA,NA,NA,0,0,NA,NA,NA,-10.17763,3.8028,8391,251781,LBR,NA,NA,430,NA,NA,430,NA,NA
21792,Joint regime area Colombia / Jamaica,8682,Joint regime,8682,Jamaica,JAM,Jamaica,2175,2175,Colombia,COL,Colombia,0,0,NA,NA,NA,-79.14572,15.47035,21792,15247,JAM,COL,NA,388,170,NA,388,170,NA
48972,Joint regime area Honduras / Cayman Islands,2103,Joint regime,2103,Honduras,HND,Honduras,8638,2208,Cayman Islands,CYM,United Kingdom,0,0,NA,NA,NA,-83.94222,18.70111,48972,2075,HND,GBR,NA,340,826,NA,340,136,NA
48973,Joint regime area Iceland / Denmark (Faeroe Islands),3297,Joint regime,2157,Faeroe,FRO,Denmark,2129,2129,Iceland,ISL,Iceland,0,0,NA,NA,NA,-10.98204,63.15298,48973,1234,DNK,ISL,NA,208,352,NA,234,352,NA
8433,Venezuelan Exclusive Economic Zone,2201,200NM,2201,Venezuela,VEN,Venezuela,0,0,NA,NA,NA,0,0,NA,NA,NA,-65.91423,12.78887,8433,472546,VEN,NA,NA,862,NA,NA,862,NA,NA
8427,Honduran Exclusive Economic Zone,2103,200NM,2103,Honduras,HND,Honduras,0,0,NA,NA,NA,0,0,NA,NA,NA,-83.84845,16.91154,8427,208636,HND,NA,NA,340,NA,NA,340,NA,NA
48974,Joint regime area Ecuador / Colombia,2166,Joint regime,2166,Ecuador,ECU,Ecuador,2175,2175,Colombia,COL,Colombia,0,0,NA,NA,NA,-81.43712,1.46058,48974,18663,ECU,COL,NA,218,170,NA,218,170,NA
48975,Joint regime area Iceland / Norway (Jan Mayen),2129,Joint regime,2129,Iceland,ISL,Iceland,5343,2252,Jan Mayen,SJM,Norway,0,0,NA,NA,NA,-8.5,69.29167,48975,45532,ISL,NOR,NA,352,578,NA,352,744,NA
8493,Canadian Exclusive Economic Zone,2169,200NM,2169,Canada,CAN,Canada,0,0,NA,NA,NA,0,0,NA,NA,NA,-89.94201,68.58777,8493,5740544,CAN,NA,NA,124,NA,NA,124,NA,NA
8368,Overlapping claim Western Saharan Exclusive Economic Zone,8617,Overlapping claim,8617,Western Sahara,ESH,Western Sahara,8617,2221,Western Sahara,ESH,Morocco,0,0,NA,NA,NA,-17.69542,23.34236,8368,284054,ESH,MAR,NA,732,504,NA,732,732,NA
8461,Surinamese Exclusive Economic Zone,2182,200NM,2182,Suriname,SUR,Suriname,0,0,NA,NA,NA,0,0,NA,NA,NA,-54.77617,7.58813,8461,133303,SUR,NA,NA,740,NA,NA,740,NA,NA
8462,French Guiana Exclusive Economic Zone,8683,200NM,17,French Guiana,GUF,France,0,0,NA,NA,NA,0,0,NA,NA,NA,-51.75452,6.69127,8462,131554,FRA,NA,NA,250,NA,NA,254,NA,NA
48982,Overlapping claim: Puerto Rico / Dominican Republic,8641,Overlapping claim,2204,Puerto Rico,PRI,United States,8640,8640,Dominican Republic,DOM,Dominican Republic,0,0,NA,NA,NA,-66.84125,20.89448,48982,18297,USA,DOM,NA,840,214,NA,630,214,NA
8452,Johnston Atoll Exclusive Economic Zone,8678,200NM,2204,Johnston Atoll,UMI,United States,0,0,NA,NA,NA,0,0,NA,NA,NA,-169.50612,16.75109,8452,442443,USA,NA,NA,840,NA,NA,581,NA,NA
8426,Colombian Exclusive Economic Zone,2175,200NM,2175,Colombia,COL,Colombia,0,0,NA,NA,NA,0,0,NA,NA,NA,-78.06222,8.60754,8426,718338,COL,NA,NA,170,NA,NA,170,NA,NA
62596,Colombian Exclusive Economic Zone (Serrana),5770,200NM,2175,Serrana Bank,NA,Colombia,0,0,NA,NA,NA,0,0,NA,NA,NA,-80.30185,14.38087,62596,2838,COL,NA,NA,170,NA,NA,NA,NA,NA
62598,Colombian Exclusive Economic Zone (Quitasueño),5765,200NM,2175,Quitasueño Bank,NA,Colombia,0,0,NA,NA,NA,0,0,NA,NA,NA,-81.16088,14.30362,62598,3689,COL,NA,NA,170,0,0,0,0,0
48984,Colombian Exclusive Economic Zone (Serranilla),5772,200NM,2175,Serranilla Bank,NA,Colombia,0,0,NA,NA,NA,0,0,NA,NA,NA,-79.85562,15.79719,48984,1552,COL,NA,NA,170,NA,NA,NA,NA,NA
48985,Colombian Exclusive Economic Zone (Bajo Nuevo),48983,200NM,2175,Bajo Nuevo Bank,NA,Colombia,0,0,NA,NA,NA,0,0,NA,NA,NA,-78.63333,15.84999,48985,1550,COL,NA,NA,170,NA,NA,NA,NA,NA
8367,Moroccan Exclusive Economic Zone,2221,200NM,2221,Morocco,MAR,Morocco,0,0,NA,NA,NA,0,0,NA,NA,NA,-9.85201,32.78135,8367,280452,MAR,NA,NA,504,NA,NA,504,NA,NA
49000,Overlapping claim Melilla: Spain / Morocco,36288,Overlapping claim,2185,Melilla,NA,Spain,36288,2221,Melilla,NA,Morocco,0,0,NA,NA,NA,-2.91697,35.31672,49000,27,ESP,MAR,NA,724,504,NA,NA,NA,NA
49001,Overlapping claim Alhucemas Islands: Spain / Morocco,48995,Overlapping claim,2185,Alhucemas Islands,NA,Spain,48995,2221,Alhucemas Islands,NA,Morocco,0,0,NA,NA,NA,-3.87866,35.23422,49001,14,ESP,MAR,NA,724,504,NA,NA,NA,NA
48998,Overlapping claim Perejil Island: Spain / Morocco,48994,Overlapping claim,2185,Perejil Island,NA,Spain,48994,2221,Perejil Island,NA,Morocco,0,0,NA,NA,NA,-5.42011,35.91465,48998,1,ESP,MAR,NA,724,504,NA,NA,NA,NA
49002,Overlapping claim Ceuta: Spain / Morocco,14864,Overlapping claim,2185,Ceuta,NA,Spain,14864,2221,Ceuta,NA,Morocco,0,0,NA,NA,NA,-5.30551,35.86909,49002,33,ESP,MAR,NA,724,504,NA,NA,NA,NA
48999,Overlapping claim Peñón de Vélez de la Gomera: Spain / Morocco,48996,Overlapping claim,2185,Peñón de Vélez de la Gomera,NA,Spain,48996,2221,Peñón de Vélez de la Gomera,NA,Morocco,0,0,NA,NA,NA,-4.30609,35.18525,48999,4,ESP,MAR,NA,724,504,NA,NA,NA,NA
48997,Overlapping claim Chafarinas Islands: Spain / Morocco,5363,Overlapping claim,2185,Chafarinas Islands,NA,Spain,5363,2221,Chafarinas Islands,NA,Morocco,0,0,NA,NA,NA,-2.45356,35.1699,48997,26,ESP,MAR,NA,724,504,NA,NA,NA,NA
8360,United Arab Emirates Exclusive Economic Zone,2206,200NM,2206,United Arab Emirates,ARE,United Arab Emirates,0,0,NA,NA,NA,0,0,NA,NA,NA,53.89303,24.94396,8360,51674,ARE,NA,NA,784,NA,NA,784,NA,NA
8376,Cypriote Exclusive Economic Zone,2159,200NM,2159,Cyprus,CYP,Cyprus,0,0,NA,NA,NA,0,0,NA,NA,NA,32.63526,34.48929,8376,98450,CYP,NA,NA,196,NA,NA,196,NA,NA
48947,Overlapping claim: Iran / United Arab Emirates,2206,Overlapping claim,2206,United Arab Emirates,ARE,United Arab Emirates,2126,2126,Iran,IRN,Iran,0,0,NA,NA,NA,55.1718,26.01269,48947,6173,ARE,IRN,NA,784,364,NA,784,364,NA
48956,Overlapping claim Doumeira Islands: Djibouti / Eritrea,48934,Overlapping claim,2111,Doumeira Islands,NA,Eritrea,48934,2131,Doumeira Islands,NA,Djibouti,0,0,NA,NA,NA,43.22221,12.75889,48956,245,ERI,DJI,NA,232,262,NA,NA,NA,NA
8490,Egyptian Exclusive Economic Zone,3868,200NM,3868,Egypt,EGY,Egypt,0,0,NA,NA,NA,0,0,NA,NA,NA,31.1503,30.45123,8490,243342,EGY,NA,NA,818,NA,NA,818,NA,NA
8351,Eritrean Exclusive Economic Zone,2111,200NM,2111,Eritrea,ERI,Eritrea,0,0,NA,NA,NA,0,0,NA,NA,NA,40.59255,15.82346,8351,78110,ERI,NA,NA,232,NA,NA,232,NA,NA
5678,Georgian Exclusive Economic Zone,2102,200NM,2102,Georgia,GEO,Georgia,0,0,NA,NA,NA,0,0,NA,NA,NA,40.56174,42.44625,5678,22944,GEO,NA,NA,268,NA,NA,268,NA,NA
8469,Iranian Exclusive Economic Zone,2126,200NM,2126,Iran,IRN,Iran,0,0,NA,NA,NA,0,0,NA,NA,NA,53.8854,29.78242,8469,215332,IRN,NA,NA,364,NA,NA,364,NA,NA
8374,Lebanese Exclusive Economic Zone,2098,200NM,2098,Lebanon,LBN,Lebanon,0,0,NA,NA,NA,0,0,NA,NA,NA,34.90392,33.90942,8374,20184,LBN,NA,NA,422,NA,NA,422,NA,NA
8372,Libyan Exclusive Economic Zone,2194,200NM,2194,Libya,LBY,Libya,0,0,NA,NA,NA,0,0,NA,NA,NA,18.49934,33.143,8372,364524,LBY,NA,NA,434,NA,NA,434,NA,NA
5685,Maltese Exclusive Economic Zone,2217,200NM,2217,Malta,MLT,Malta,0,0,NA,NA,NA,0,0,NA,NA,NA,15.11121,35.31355,5685,52923,MLT,NA,NA,470,NA,NA,470,NA,NA
8354,Omani Exclusive Economic Zone,2251,200NM,2251,Oman,OMN,Oman,0,0,NA,NA,NA,0,0,NA,NA,NA,58.66998,18.94915,8354,556490,OMN,NA,NA,512,NA,NA,512,NA,NA
8356,Saudi Arabian Exclusive Economic Zone,2215,200NM,2215,Saudi Arabia,SAU,Saudi Arabia,0,0,NA,NA,NA,0,0,NA,NA,NA,40.4858,22.45463,8356,224219,SAU,NA,NA,682,NA,NA,682,NA,NA
8346,Sri Lankan Exclusive Economic Zone,2195,200NM,2195,Sri Lanka,LKA,Sri Lanka,0,0,NA,NA,NA,0,0,NA,NA,NA,81.63607,6.54638,8346,533559,LKA,NA,NA,144,NA,NA,144,NA,NA
8355,Sudanese Exclusive Economic Zone,2183,200NM,2183,Sudan,SDN,Sudan,0,0,NA,NA,NA,0,0,NA,NA,NA,38.14367,19.74792,8355,62826,SDN,NA,NA,729,NA,NA,729,NA,NA
8373,Syrian Exclusive Economic Zone,3384,200NM,3384,Syria,SYR,Syria,0,0,NA,NA,NA,0,0,NA,NA,NA,35.49624,35.32871,8373,10269,SYR,NA,NA,760,NA,NA,760,NA,NA
8392,Togolese Exclusive Economic Zone,8632,200NM,8632,Togo,TGO,Togo,0,0,NA,NA,NA,0,0,NA,NA,NA,1.82135,4.63949,8392,15447,TGO,NA,NA,768,NA,NA,768,NA,NA
5679,Greek Exclusive Economic Zone,2099,200NM,2099,Greece,GRC,Greece,0,0,NA,NA,NA,0,0,NA,NA,NA,23.93245,36.50714,5679,482910,GRC,NA,NA,300,NA,NA,300,NA,NA
5697,Turkish Exclusive Economic Zone,2213,200NM,2213,Turkey,TUR,Turkey,0,0,NA,NA,NA,0,0,NA,NA,NA,33.2206,40.52224,5697,262233,TUR,NA,NA,792,NA,NA,792,NA,NA
21790,Monégasque Exclusive Economic Zone,2222,200NM,2222,Monaco,MCO,Monaco,0,0,NA,NA,NA,0,0,NA,NA,NA,7.58768,43.34802,21790,288,MCO,NA,NA,492,NA,NA,492,NA,NA
8366,Tunisian Exclusive Economic Zone,2214,200NM,2214,Tunisia,TUN,Tunisia,0,0,NA,NA,NA,0,0,NA,NA,NA,11.05319,36.00133,8366,99701,TUN,NA,NA,788,NA,NA,788,NA,NA
5691,Montenegrin Exclusive economic Zone,17831,200NM,17831,Montenegro,MNE,Montenegro,0,0,NA,NA,NA,0,0,NA,NA,NA,18.68015,41.87023,5691,6383,MNE,NA,NA,499,NA,NA,499,NA,NA
5670,Albanian Exclusive Economic Zone,2153,200NM,2153,Albania,ALB,Albania,0,0,NA,NA,NA,0,0,NA,NA,NA,19.113,40.92708,5670,12165,ALB,NA,NA,8,NA,NA,8,NA,NA
5672,Bulgarian Exclusive Economic Zone,2174,200NM,2174,Bulgaria,BGR,Bulgaria,0,0,NA,NA,NA,0,0,NA,NA,NA,29.20165,42.93396,5672,34745,BGR,NA,NA,100,NA,NA,100,NA,NA
48953,Palestinian Exclusive Economic Zone,15525,200NM,15525,Palestine,PSE,Palestine,2123,2123,Israel,ISR,Israel,0,0,NA,NA,NA,34.23444,31.56915,48953,1120,PSE,ISR,NA,275,376,NA,275,376,NA
8357,Kuwaiti Exclusive Economic Zone,2115,200NM,2115,Kuwait,KWT,Kuwait,0,0,NA,NA,NA,0,0,NA,NA,NA,48.62908,29.18459,8357,11179,KWT,NA,NA,414,NA,NA,414,NA,NA
8470,Iraqi Exclusive Economic Zone,2125,200NM,2125,Iraq,IRQ,Iraq,0,0,NA,NA,NA,0,0,NA,NA,NA,48.58489,29.76952,8470,1187,IRQ,NA,NA,368,NA,NA,368,NA,NA
8358,Bahraini Exclusive Economic Zone,2154,200NM,2154,Bahrain,BHR,Bahrain,0,0,NA,NA,NA,0,0,NA,NA,NA,50.70534,26.3354,8358,7516,BHR,NA,NA,48,NA,NA,48,NA,NA
8468,Qatari Exclusive Economic Zone,2242,200NM,2242,Qatar,QAT,Qatar,0,0,NA,NA,NA,0,0,NA,NA,NA,51.88076,25.86236,8468,31363,QAT,NA,NA,634,NA,NA,634,NA,NA
8353,Yemeni Exclusive Economic Zone,2199,200NM,2199,Yemen,YEM,Yemen,0,0,NA,NA,NA,0,0,NA,NA,NA,52.06161,12.88906,8353,527384,YEM,NA,NA,887,NA,NA,887,NA,NA
8375,Israeli Exclusive Economic Zone,2123,200NM,2123,Israel,ISR,Israel,0,0,NA,NA,NA,0,0,NA,NA,NA,34.08805,32.57437,8375,24628,ISR,NA,NA,376,NA,NA,376,NA,NA
8491,Jordanian Exclusive Economic Zone,2120,200NM,2120,Jordan,JOR,Jordan,0,0,NA,NA,NA,0,0,NA,NA,NA,34.94683,29.43517,8491,97,JOR,NA,NA,400,NA,NA,400,NA,NA
8352,Djiboutian Exclusive Economic Zone,2131,200NM,2131,Djibouti,DJI,Djibouti,0,0,NA,NA,NA,0,0,NA,NA,NA,43.43296,11.9971,8352,7223,DJI,NA,NA,262,NA,NA,262,NA,NA
8481,Bangladeshi Exclusive Economic Zone,2142,200NM,2142,Bangladesh,BGD,Bangladesh,0,0,NA,NA,NA,0,0,NA,NA,NA,90.56153,20.47561,8481,112166,BGD,NA,NA,50,NA,NA,50,NA,NA
8474,Nigerian Exclusive Economic Zone,2253,200NM,2253,Nigeria,NGA,Nigeria,0,0,NA,NA,NA,0,0,NA,NA,NA,4.82275,4.08512,8474,179048,NGA,NA,NA,566,NA,NA,566,NA,NA
8475,Cameroonian Exclusive Economic Zone,2170,200NM,2170,Cameroon,CMR,Cameroon,0,0,NA,NA,NA,0,0,NA,NA,NA,9.31089,3.46278,8475,15143,CMR,NA,NA,120,NA,NA,120,NA,NA
21797,Joint regime area Nigeria / Sao Tome and Principe,2238,Joint regime,2238,Sao Tome and Principe,STP,Sao Tome and Principe,2253,2253,Nigeria,NGA,Nigeria,0,0,NA,NA,NA,5.58699,2.0676,21797,34534,STP,NGA,NA,678,566,NA,678,566,NA
48976,Joint regime area Italy / France,17,Joint regime,17,France,FRA,France,2133,2133,Italy,ITA,Italy,0,0,NA,NA,NA,9.04886,41.30715,48976,67,FRA,ITA,NA,250,380,NA,250,380,NA
22491,Bosnian and Herzegovinian Exclusive Economic Zone,2136,200NM,2136,Bosnia and Herzegovina,BIH,Bosnia and Herzegovina,0,0,NA,NA,NA,0,0,NA,NA,NA,17.59256,42.91656,22491,13,BIH,NA,NA,70,NA,NA,70,NA,NA
48957,Guam Exclusive Economic Zone,8599,200NM,2204,Guam,GUM,United States,0,0,NA,NA,NA,0,0,NA,NA,NA,144.00261,12.92958,48957,208234,USA,NA,NA,840,NA,NA,316,NA,NA
8318,Marshall Islands Exclusive Economic Zone,2226,200NM,2226,Marshall Islands,MHL,Marshall Islands,0,0,NA,NA,NA,0,0,NA,NA,NA,167.48735,10.15204,8318,2001566,MHL,NA,NA,584,NA,NA,584,NA,NA
48980,Northern Mariana Exclusive Economic Zone,8598,200NM,2204,Northern Mariana Islands,MNP,United States,0,0,NA,NA,NA,0,0,NA,NA,NA,145.73933,18.2866,48980,763626,USA,NA,NA,840,NA,NA,580,NA,NA
8315,Palau Exclusive Economic Zone,8594,200NM,8594,Palau,PLW,Palau,0,0,NA,NA,NA,0,0,NA,NA,NA,133.0671,6.44073,8315,614807,PLW,NA,NA,585,NA,NA,585,NA,NA
8322,Philippines Exclusive Economic Zone,2245,200NM,2245,Philippines,PHL,Philippines,0,0,NA,NA,NA,0,0,NA,NA,NA,122.15314,12.245,8322,1971033,PHL,NA,NA,608,NA,NA,608,NA,NA
48954,Overlapping claim Senkaku Islands: Japan / China / Taiwan,48936,Overlapping claim,2177,Senkaku Islands,NA,Taiwan,48936,2121,Senkaku Islands,NA,Japan,48936,8603,Senkaku Islands,NA,China,124.12211,26.5208,48954,73794,TWN,JPN,CHN,158,392,156,0,0,0
8485,Singaporean Exclusive Economic Zone,2190,200NM,2190,Singapore,SGP,Singapore,0,0,NA,NA,NA,0,0,NA,NA,NA,103.81835,1.27519,8485,714,SGP,NA,NA,702,NA,NA,702,NA,NA
8332,Thailand Exclusive Economic Zone,2207,200NM,2207,Thailand,THA,Thailand,0,0,NA,NA,NA,0,0,NA,NA,NA,99.62868,9.16617,8332,298683,THA,NA,NA,764,NA,NA,764,NA,NA
8319,Wake Island Exclusive Economic Zone,8597,200NM,2204,Wake Island,UMI,United States,0,0,NA,NA,NA,0,0,NA,NA,NA,166.53046,19.50326,8319,406970,USA,NA,NA,840,NA,NA,581,NA,NA
8484,Vietnamese Exclusive Economic Zone,2200,200NM,2200,Vietnam,VNM,Vietnam,0,0,NA,NA,NA,0,0,NA,NA,NA,108.75813,11.61103,8484,750958,VNM,NA,NA,704,NA,NA,704,NA,NA
21796,Joint regime area Japan / Korea,8600,Joint regime,8600,South Korea,KOR,South Korea,2121,2121,Japan,JPN,Japan,0,0,NA,NA,NA,127.57808,30.81396,21796,82610,KOR,JPN,NA,410,392,NA,410,392,NA
26521,Bruneian Exclusive Economic Zone,2145,200NM,2145,Brunei,BRN,Brunei,0,0,NA,NA,NA,0,0,NA,NA,NA,113.38744,6.05934,26521,43144,BRN,NA,NA,96,NA,NA,96,NA,NA
8321,Taiwanese Exclusive Economic Zone,2177,200NM,2177,Taiwan,TWN,Taiwan,0,0,NA,NA,NA,0,0,NA,NA,NA,118.71458,21.42076,8321,355433,TWN,NA,NA,158,0,0,158,0,0
8328,North Korean Exclusive Economic Zone,8601,200NM,8601,North Korea,PRK,North Korea,0,0,NA,NA,NA,0,0,NA,NA,NA,128.99535,39.82785,8328,114379,PRK,NA,NA,408,NA,NA,408,NA,NA
8331,Cambodian Exclusive Economic Zone,2171,200NM,2171,Cambodia,KHM,Cambodia,0,0,NA,NA,NA,0,0,NA,NA,NA,102.54228,10.22543,8331,48697,KHM,NA,NA,116,NA,NA,116,NA,NA
8486,Chinese Exclusive Economic Zone,8603,200NM,8603,China,CHN,China,0,0,NA,NA,NA,0,0,NA,NA,NA,118.1457,27.73853,8486,963556,CHN,NA,NA,156,NA,NA,156,NA,NA
5675,Estonian Exclusive Economic Zone,2110,200NM,2110,Estonia,EST,Estonia,0,0,NA,NA,NA,0,0,NA,NA,NA,23.00232,58.77012,5675,36451,EST,NA,NA,233,NA,NA,233,NA,NA
5676,Finnish Exclusive Economic Zone,2106,200NM,2106,Finland,FIN,Finland,0,0,NA,NA,NA,0,0,NA,NA,NA,21.88919,61.75484,5676,81553,FIN,NA,NA,246,NA,NA,246,NA,NA
5694,Swedish Exclusive Economic Zone,2180,200NM,2180,Sweden,SWE,Sweden,0,0,NA,NA,NA,0,0,NA,NA,NA,18.11517,59.4855,5694,155347,SWE,NA,NA,752,NA,NA,752,NA,NA
5684,Lithuanian Exclusive Economic Zone,2156,200NM,2156,Lithuania,LTU,Lithuania,0,0,NA,NA,NA,0,0,NA,NA,NA,20.36412,55.75527,5684,6832,LTU,NA,NA,440,NA,NA,440,NA,NA
48977,Joint regime area Sweden / Norway,2252,Joint regime,2252,Norway,NOR,Norway,2180,2180,Sweden,SWE,Sweden,0,0,NA,NA,NA,10.50095,58.80998,48977,140,NOR,SWE,NA,578,752,NA,578,752,NA
3293,Belgian Exclusive Economic Zone,14,200NM,14,Belgium,BEL,Belgium,0,0,NA,NA,NA,0,0,NA,NA,NA,2.70504,51.46545,3293,3495,BEL,NA,NA,56,NA,NA,56,NA,NA
5668,Dutch Exclusive Economic Zone,15,200NM,15,Netherlands,NLD,Netherlands,0,0,NA,NA,NA,0,0,NA,NA,NA,4.18654,53.61208,5668,64328,NLD,NA,NA,528,NA,NA,528,NA,NA
5669,German Exclusive Economic Zone,2101,200NM,2101,Germany,DEU,Germany,0,0,NA,NA,NA,0,0,NA,NA,NA,8.3944,54.55354,5669,56763,DEU,NA,NA,276,NA,NA,276,NA,NA
5674,Danish Exclusive Economic Zone,2157,200NM,2157,Denmark,DNK,Denmark,0,0,NA,NA,NA,0,0,NA,NA,NA,9.24983,56.14213,5674,105021,DNK,NA,NA,208,NA,NA,208,NA,NA
5683,Latvian Exclusive Economic Zone,2132,200NM,2132,Latvia,LVA,Latvia,0,0,NA,NA,NA,0,0,NA,NA,NA,21.35197,57.10433,5683,28353,LVA,NA,NA,428,NA,NA,428,NA,NA
5673,Croatian Exclusive Economic Zone,2160,200NM,2160,Croatia,HRV,Croatia,0,0,NA,NA,NA,0,0,NA,NA,NA,15.65218,43.43006,5673,55404,HRV,NA,NA,191,NA,NA,191,NA,NA
5682,Italian Exclusive Economic Zone,2133,200NM,2133,Italy,ITA,Italy,0,0,NA,NA,NA,0,0,NA,NA,NA,12.92786,39.65467,5682,536654,ITA,NA,NA,380,NA,NA,380,NA,NA
5695,Overlapping claim Ukrainian Exclusive Economic Zone,2196,Overlapping claim,2196,Ukraine,UKR,Ukraine,0,0,NA,NA,NA,0,0,NA,NA,NA,33.63465,44.95192,5695,136198,UKR,NA,NA,804,NA,NA,804,NA,NA
5689,Romanian Exclusive economic Zone,2241,200NM,2241,Romania,ROU,Romania,0,0,NA,NA,NA,0,0,NA,NA,NA,30.0785,44.24109,5689,29606,ROU,NA,NA,642,NA,NA,642,NA,NA
8487,Japanese Exclusive Economic Zone,2121,200NM,2121,Japan,JPN,Japan,0,0,NA,NA,NA,0,0,NA,NA,NA,138.44863,29.55656,8487,4066513,JPN,NA,NA,392,NA,NA,392,NA,NA
48950,Overlapping claim Kuril Islands: Japan / Russia,9011,Overlapping claim,2121,Kuril Islands,NA,Japan,9011,2240,Kuril Islands,NA,Russia,0,0,NA,NA,NA,147.96154,43.88606,48950,213723,JPN,RUS,NA,392,643,NA,NA,NA,NA
8333,Indian Exclusive Economic Zone (Andaman and Nicobar Islands),8605,200NM,2128,Andaman and Nicobar,NA,India,0,0,NA,NA,NA,0,0,NA,NA,NA,92.18967,9.97738,8333,664448,IND,NA,NA,356,NA,NA,NA,NA,NA
8359,Pakistani Exclusive Economic Zone,2250,200NM,2250,Pakistan,PAK,Pakistan,0,0,NA,NA,NA,0,0,NA,NA,NA,64.71198,23.53952,8359,224374,PAK,NA,NA,586,NA,NA,586,NA,NA
26523,Turkmen Exclusive Economic Zone,2212,200NM,2212,Turkmenistan,TKM,Turkmenistan,0,0,NA,NA,NA,0,0,NA,NA,NA,52.63853,39.29232,26523,61226,TKM,NA,NA,795,NA,NA,795,NA,NA
26524,Azerbaijanis Exclusive Economic Zone,2134,200NM,2134,Azerbaijan,AZE,Azerbaijan,0,0,NA,NA,NA,0,0,NA,NA,NA,50.33172,40.2835,26524,80614,AZE,NA,NA,31,NA,NA,31,NA,NA
26522,Kazakh Exclusive Economic Zone,2119,200NM,2119,Kazakhstan,KAZ,Kazakhstan,0,0,NA,NA,NA,0,0,NA,NA,NA,51.0144,44.47442,26522,114383,KAZ,NA,NA,398,NA,NA,398,NA,NA
8482,Myanmar Exclusive Economic Zone,2219,200NM,2219,Myanmar,MMR,Myanmar,0,0,NA,NA,NA,0,0,NA,NA,NA,94.65552,14.99651,8482,497460,MMR,NA,NA,104,NA,NA,104,NA,NA
5687,Polish Exclusive Economic Zone,2244,200NM,2244,Poland,POL,Poland,0,0,NA,NA,NA,0,0,NA,NA,NA,17.2906,54.90857,5687,29982,POL,NA,NA,616,NA,NA,616,NA,NA
8480,Indian Exclusive Economic Zone,2128,200NM,2128,India,IND,India,0,0,NA,NA,NA,0,0,NA,NA,NA,76.08532,14.598,8480,1659487,IND,NA,NA,356,NA,NA,356,NA,NA
26582,Overlapping claim: Sudan / Egypt,2183,Overlapping claim,2183,Sudan,SDN,Sudan,3868,3868,Egypt,EGY,Egypt,0,0,NA,NA,NA,36.87917,22.61164,26582,19734,SDN,EGY,NA,729,818,NA,729,818,NA
8393,Beninese Exclusive Economic Zone,2139,200NM,2139,Benin,BEN,Benin,0,0,NA,NA,NA,0,0,NA,NA,NA,2.42123,4.84155,8393,35493,BEN,NA,NA,204,NA,NA,204,NA,NA
5692,Slovenian Exclusive Economic Zone,2188,200NM,2188,Slovenia,SVN,Slovenia,0,0,NA,NA,NA,0,0,NA,NA,NA,13.57896,45.56287,5692,214,SVN,NA,NA,705,NA,NA,705,NA,NA
8483,Malaysian Exclusive Economic Zone,2230,200NM,2230,Malaysia,MYS,Malaysia,0,0,NA,NA,NA,0,0,NA,NA,NA,109.1183,5.17569,8483,510804,MYS,NA,NA,458,NA,NA,458,NA,NA
49003,Overlapping claim South China Sea,0,Overlapping claim,8603,China,CHN,China,0,0,NA,NA,NA,0,0,NA,NA,NA,114.10176,13.14179,49003,338839,CHN,NA,NA,156,0,0,156,0,0
50167,Joint regime area Croatia / Slovenia,2160,Joint regime,2160,Croatia,HRV,Croatia,2188,2188,Slovenia,SVN,Slovenia,0,0,NA,NA,NA,13.30933,45.4977,50167,98,HRV,SVN,NA,191,705,NA,191,705,NA
8327,South Korean Exclusive Economic Zone,8600,200NM,8600,South Korea,KOR,South Korea,0,0,NA,NA,NA,0,0,NA,NA,NA,127.57712,35.74071,8327,347671,KOR,NA,NA,410,NA,NA,410,NA,NA
48955,Overlapping claim Liancourt Rocks: Japan / South Korea,48935,Overlapping claim,2121,Liancourt Rocks,NA,Japan,48935,8600,Liancourt Rocks,NA,South Korea,0,0,NA,NA,NA,131.86633,37.24233,48955,1624,JPN,KOR,NA,392,410,NA,NA,NA,NA
50170,Overlapping claim Qatar / Saudi Arabia / United Arab Emirates,8468,Overlapping claim,8468,Qatar,QAT,Qatar,2215,2215,Saudi Arabia,SAU,Saudi Arabia,2206,2206,United Arab Emirates,ARE,United Arab Emirates,51.59986,24.69243,50170,126,QAT,SAU,ARE,634,682,784,634,682,784
8455,New Zealand Exclusive Economic Zone,2227,200NM,2227,New Zealand,NZL,New Zealand,0,0,NA,NA,NA,0,0,NA,NA,NA,71.72752,-42.76594,8455,4104551,NZL,NA,NA,554,NA,NA,554,NA,NA
8442,Jarvis Island Exclusive Economic Zone,8668,200NM,2204,Jarvis Island,UMI,United States,0,0,NA,NA,NA,0,0,NA,NA,NA,-160.46839,-0.914,8442,323186,USA,NA,NA,840,NA,NA,581,NA,NA
8489,Antarctic 200NM zone beyond the coastline,1926,200NM,1926,Antarctica,ATA,Antarctica,0,0,NA,NA,NA,0,0,NA,NA,NA,-10.9752,-71.11227,8489,9618978,ATA,NA,NA,10,NA,NA,10,NA,NA
8326,Tuvaluan Exclusive Economic Zone,2210,200NM,2210,Tuvalu,TUV,Tuvalu,0,0,NA,NA,NA,0,0,NA,NA,NA,74.28785,-7.81254,8326,753133,TUV,NA,NA,798,NA,NA,798,NA,NA
8454,Wallis and Futuna Exclusive Economic Zone,8680,200NM,17,Wallis and Futuna,WLF,France,0,0,NA,NA,NA,0,0,NA,NA,NA,-172.77595,-12.79664,8454,262750,FRA,NA,NA,250,NA,NA,876,NA,NA
8451,Howland and Baker Islands Exclusive Economic Zone,48684,200NM,2204,Howland and Baker islands,UMI,United States,0,0,NA,NA,NA,0,0,NA,NA,NA,-176.72727,0.7913,8451,434894,USA,NA,NA,840,NA,NA,581,NA,NA
8325,Fijian Exclusive Economic Zone,2108,200NM,2108,Fiji,FJI,Fiji,0,0,NA,NA,NA,0,0,NA,NA,NA,95.36388,-17.98795,8325,1289978,FJI,NA,NA,242,NA,NA,242,NA,NA
8464,Brazilian Exclusive Economic Zone,2143,200NM,2143,Brazil,BRA,Brazil,0,0,NA,NA,NA,0,0,NA,NA,NA,-39.44423,-11.09799,8464,3205183,BRA,NA,NA,76,NA,NA,76,NA,NA
8441,Kiribati Exclusive Economic Zone (Line Islands),8657,200NM,2116,Line Group,KIR,Kiribati,0,0,NA,NA,NA,0,0,NA,NA,NA,-154.72634,-3.82154,8441,1641193,KIR,NA,NA,296,NA,NA,296,NA,NA
8488,Kiribati Exclusive Economic Zone (Gilbert Islands),17597,200NM,2116,Gilbert Islands,KIR,Kiribati,0,0,NA,NA,NA,0,0,NA,NA,NA,172.78214,-0.25912,8488,1053245,KIR,NA,NA,296,NA,NA,296,NA,NA
8403,Ecuadorian Exclusive Economic Zone (Galapagos),5660,200NM,2166,Galapagos,NA,Ecuador,0,0,NA,NA,NA,0,0,NA,NA,NA,-90.83174,-0.04184,8403,841438,ECU,NA,NA,218,NA,NA,NA,NA,NA
8431,Ecuadorian Exclusive Economic Zone,2166,200NM,2166,Ecuador,ECU,Ecuador,0,0,NA,NA,NA,0,0,NA,NA,NA,-82.20864,-0.96556,8431,236293,ECU,NA,NA,218,NA,NA,218,NA,NA
8397,Sao Tome and Principe Exclusive Economic Zone,2238,200NM,2238,Sao Tome and Principe,STP,Sao Tome and Principe,0,0,NA,NA,NA,0,0,NA,NA,NA,6.35335,0.7791,8397,130844,STP,NA,NA,678,NA,NA,678,NA,NA
8316,Micronesian Exclusive Economic Zone,8595,200NM,8595,Micronesia,FSM,Micronesia,0,0,NA,NA,NA,0,0,NA,NA,NA,150.32203,6.7693,8316,3010644,FSM,NA,NA,583,0,0,583,0,0
8398,Equatorial Guinean Exclusive Economic Zone,2112,200NM,2112,Equatorial Guinea,GNQ,Equatorial Guinea,0,0,NA,NA,NA,0,0,NA,NA,NA,5.43745,-1.37183,8398,304133,GNQ,NA,NA,226,NA,NA,226,NA,NA
8345,Maldives Exclusive Economic Zone,2229,200NM,2229,Maldives,MDV,Maldives,0,0,NA,NA,NA,0,0,NA,NA,NA,73.08337,2.48241,8345,920739,MDV,NA,NA,462,NA,NA,462,NA,NA
8324,Papua New Guinean Exclusive Economic Zone,2237,200NM,2237,Papua New Guinea,PNG,Papua New Guinea,0,0,NA,NA,NA,0,0,NA,NA,NA,150.71774,-5.46159,8324,2399638,PNG,NA,NA,598,NA,NA,598,NA,NA
8350,Somali Exclusive Economic Zone,2187,200NM,2187,Federal Republic of Somalia,SOM,Federal Republic of Somalia,0,0,NA,NA,NA,0,0,NA,NA,NA,48.7186,5.38252,8350,781843,SOM,NA,NA,706,NA,NA,706,NA,NA
8317,Nauruan Exclusive Economic Zone,8596,200NM,8596,Nauru,NRU,Nauru,0,0,NA,NA,NA,0,0,NA,NA,NA,166.12396,-0.59113,8317,309261,NRU,NA,NA,520,NA,NA,520,NA,NA
8476,Gabonese Exclusive Economic Zone,2104,200NM,2104,Gabon,GAB,Gabon,0,0,NA,NA,NA,0,0,NA,NA,NA,8.73897,-3.06254,8476,201759,GAB,NA,NA,266,NA,NA,266,NA,NA
8492,Indonesian Exclusive Economic Zone,2127,200NM,2127,Indonesia,IDN,Indonesia,0,0,NA,NA,NA,0,0,NA,NA,NA,117.89096,-3.30391,8492,6020917,IDN,NA,NA,360,NA,NA,360,NA,NA
48978,Joint regime area United States / Russia,2204,Joint regime,2204,United States,USA,United States,2240,2240,Russia,RUS,Russia,0,0,NA,NA,NA,-16.90039,61.18062,48978,8521,USA,RUS,NA,840,643,NA,840,643,NA
5677,French Exclusive Economic Zone,17,200NM,17,France,FRA,France,0,0,NA,NA,NA,0,0,NA,NA,NA,-1.96613,46.04212,5677,345240,FRA,NA,NA,250,NA,NA,250,NA,NA
8378,Algerian Exclusive Economic Zone,2152,200NM,2152,Algeria,DZA,Algeria,0,0,NA,NA,NA,0,0,NA,NA,NA,3.53979,37.20344,8378,131193,DZA,NA,NA,12,NA,NA,12,NA,NA
8400,Ghanaian Exclusive Economic Zone,2100,200NM,2100,Ghana,GHA,Ghana,0,0,NA,NA,NA,0,0,NA,NA,NA,-0.85027,3.50201,8400,227500,GHA,NA,NA,288,NA,NA,288,NA,NA
8438,Greenlandic Exclusive Economic Zone,2260,200NM,2157,Greenland,GRL,Denmark,0,0,NA,NA,NA,0,0,NA,NA,NA,-31.97096,75.47965,8438,2268623,DNK,NA,NA,208,NA,NA,304,NA,NA
5696,United Kingdom Exclusive Economic Zone,2208,200NM,2208,United Kingdom,GBR,United Kingdom,0,0,NA,NA,NA,0,0,NA,NA,NA,-4.28967,56.77953,5696,731309,GBR,NA,NA,826,NA,NA,826,NA,NA
8453,United States Exclusive Economic Zone (Hawaii),8679,200NM,2204,Hawaii,NA,United States,0,0,NA,NA,NA,0,0,NA,NA,NA,-151.05753,24.04099,8453,2474715,USA,NA,NA,840,NA,NA,NA,NA,NA
33181,Svalbard Exclusive Economic Zone,5334,200NM,2252,Svalbard,SJM,Norway,0,0,NA,NA,NA,0,0,NA,NA,NA,18.28904,78.7134,33181,797063,NOR,NA,NA,578,NA,NA,744,NA,NA
5686,Norwegian Exclusive Economic Zone,2252,200NM,2252,Norway,NOR,Norway,0,0,NA,NA,NA,0,0,NA,NA,NA,14.05714,68.18893,5686,933027,NOR,NA,NA,578,NA,NA,578,NA,NA
5690,Russian Exclusive economic Zone,2240,200NM,2240,Russia,RUS,Russia,0,0,NA,NA,NA,0,0,NA,NA,NA,93.55011,71.3249,5690,7734809,RUS,NA,NA,643,NA,NA,643,NA,NA
8437,Jan Mayen Exclusive Economic Zone,5343,200NM,2252,Jan Mayen,SJM,Norway,0,0,NA,NA,NA,0,0,NA,NA,NA,-5.25129,71.11421,8437,292907,NOR,NA,NA,578,NA,NA,744,NA,NA
8463,United States Exclusive Economic Zone (Alaska),8684,200NM,2204,Alaska,NA,United States,0,0,NA,NA,NA,0,0,NA,NA,NA,-119.9766,59.0117,8463,3682912,USA,NA,NA,840,NA,NA,NA,NA,NA
5693,Spanish Exclusive Economic Zone,2185,200NM,2185,Spain,ESP,Spain,0,0,NA,NA,NA,0,0,NA,NA,NA,-4.15801,41.72201,5693,561763,ESP,NA,NA,724,NA,NA,724,NA,NA
62589,Chagos Archipelago Exclusive Economic Zone,8616,200 NM,8614,Chagos Archipelago,NA,Mauritius,0,0,NA,NA,NA,0,0,NA,NA,NA,72.00202,-6.53945,62589,650804,MUS,NA,NA,480,NA,NA,NA,NA,NA
8383,Overlapping claim South Georgia and South Sandwich Islands: UK / Argentina,8624,Overlapping claim,2208,South Georgia and the South Sandwich Islands,SGS,United Kingdom,8624,2149,South Georgia and the South Sandwich Islands,SGS,Argentina,0,0,NA,NA,NA,-31.26381,-56.52404,8383,1237783,GBR,ARG,NA,826,32,NA,239,239,NA
8402,Bermudian Exclusive Economic Zone,8636,200NM,2208,Bermuda,BMU,United Kingdom,0,0,NA,NA,NA,0,0,NA,NA,NA,-64.80693,32.36899,8402,464389,GBR,NA,NA,826,NA,NA,60,NA,NA
8456,United States Exclusive Economic Zone,2204,200NM,2204,United States,USA,United States,0,0,NA,NA,NA,0,0,NA,NA,NA,-95.8229,34.76294,8456,2451023,USA,NA,NA,840,NA,NA,840,NA,NA
